start=new Date('2022-10-08T00:00:00.000Z').valueOf();
sats=[{"TLE_LINE2":"2 49771  53.2167 346.8924 0002249  31.7241 328.3886 15.08841853 47096","OBJECT_TYPE":"PAYLOAD","TLE_LINE1":"1 49771U 21115AZ  22280.51339573  .00002086  00000-0  14910-3 0  9992","MEAN_ANOMALY":"328.3886","RCS_SIZE":"LARGE","MEAN_MOTION":"15.08841853","REF_FRAME":"TEME","LAUNCH_DATE":"2021-12-02","MEAN_ELEMENT_THEORY":"SGP4","OBJECT_NAME":"STARLINK-3201","COUNTRY_CODE":"US","ARG_OF_PERICENTER":"31.7241","FILE":"3595773","RA_OF_ASC_NODE":"346.8924","REV_AT_EPOCH":"4709","TIME_SYSTEM":"UTC","ECCENTRICITY":"0.00022490","PERIOD":"95.437","EPHEMERIS_TYPE":"0","OBJECT_ID":"2021-115AZ","SEMIMAJOR_AXIS":"6917.875","CENTER_NAME":"EARTH","MEAN_MOTION_DOT":"0.00002086","INCLINATION":"53.2167","NORAD_CAT_ID":"49771","PERIAPSIS":"538.184","ELEMENT_SET_NO":"999","BSTAR":"0.00014910000000","SITE":"AFETR","MEAN_MOTION_DDOT":"0.0000000000000","APOAPSIS":"541.296","CLASSIFICATION_TYPE":"U","DECAY_DATE":null,"EPOCH":"2022-10-07T12:19:17.391072","GP_ID":"214437074"},{"MEAN_ANOMALY":"296.0939","TLE_LINE1":"1 50156U 21125A   22280.79496337  .00000261  00000-0  34509-4 0  9994","TLE_LINE2":"2 50156  53.2183  95.6360 0001554  64.0213 296.0939 15.08833973 48097","OBJECT_TYPE":"PAYLOAD","ARG_OF_PERICENTER":"64.0213","COUNTRY_CODE":"US","OBJECT_NAME":"STARLINK-3317","MEAN_ELEMENT_THEORY":"SGP4","ECCENTRICITY":"0.00015540","TIME_SYSTEM":"UTC","REV_AT_EPOCH":"4809","RA_OF_ASC_NODE":"95.6360","FILE":"3595773","REF_FRAME":"TEME","MEAN_MOTION":"15.08833973","RCS_SIZE":"LARGE","LAUNCH_DATE":"2021-12-18","CENTER_NAME":"EARTH","PERIOD":"95.438","SEMIMAJOR_AXIS":"6917.899","OBJECT_ID":"2021-125A","EPHEMERIS_TYPE":"0","APOAPSIS":"540.839","MEAN_MOTION_DDOT":"0.0000000000000","EPOCH":"2022-10-07T19:04:44.835168","GP_ID":"214435841","CLASSIFICATION_TYPE":"U","DECAY_DATE":null,"PERIAPSIS":"538.689","NORAD_CAT_ID":"50156","INCLINATION":"53.2183","MEAN_MOTION_DOT":"0.00000261","SITE":"AFWTR","BSTAR":"0.00003450900000","ELEMENT_SET_NO":"999"},{"MEAN_MOTION_DDOT":"0.0000000000000","APOAPSIS":"540.891","DECAY_DATE":null,"CLASSIFICATION_TYPE":"U","GP_ID":"214436091","EPOCH":"2022-10-07T19:39:08.109504","MEAN_MOTION_DOT":"0.00003490","INCLINATION":"53.2162","PERIAPSIS":"538.575","NORAD_CAT_ID":"50157","BSTAR":"0.00023722000000","ELEMENT_SET_NO":"999","SITE":"AFWTR","CENTER_NAME":"EARTH","PERIOD":"95.437","EPHEMERIS_TYPE":"0","OBJECT_ID":"2021-125B","SEMIMAJOR_AXIS":"6917.868","MEAN_ELEMENT_THEORY":"SGP4","OBJECT_NAME":"STARLINK-3313","ARG_OF_PERICENTER":"54.0703","COUNTRY_CODE":"US","FILE":"3595773","REV_AT_EPOCH":"4796","RA_OF_ASC_NODE":"105.5165","TIME_SYSTEM":"UTC","ECCENTRICITY":"0.00016740","RCS_SIZE":"LARGE","MEAN_MOTION":"15.08843997","REF_FRAME":"TEME","LAUNCH_DATE":"2021-12-18","TLE_LINE1":"1 50157U 21125B   22280.81884386  .00003490  00000-0  23722-3 0  9994","MEAN_ANOMALY":"306.0444","TLE_LINE2":"2 50157  53.2162 105.5165 0001674  54.0703 306.0444 15.08843997 47960","OBJECT_TYPE":"PAYLOAD"},{"RA_OF_ASC_NODE":"105.5805","REV_AT_EPOCH":"4798","FILE":"3595773","ECCENTRICITY":"0.00017480","TIME_SYSTEM":"UTC","OBJECT_NAME":"STARLINK-3309","MEAN_ELEMENT_THEORY":"SGP4","COUNTRY_CODE":"US","ARG_OF_PERICENTER":"42.1281","LAUNCH_DATE":"2021-12-18","RCS_SIZE":"LARGE","REF_FRAME":"TEME","MEAN_MOTION":"15.08837376","MEAN_ANOMALY":"317.9845","TLE_LINE1":"1 50158U 21125C   22280.80780302  .00001749  00000-0  12797-3 0  9992","OBJECT_TYPE":"PAYLOAD","TLE_LINE2":"2 50158  53.2154 105.5805 0001748  42.1281 317.9845 15.08837376 47986","CLASSIFICATION_TYPE":"U","DECAY_DATE":null,"EPOCH":"2022-10-07T19:23:14.180928","GP_ID":"214436843","MEAN_MOTION_DDOT":"0.0000000000000","APOAPSIS":"540.963","SITE":"AFWTR","BSTAR":"0.00012797000000","ELEMENT_SET_NO":"999","MEAN_MOTION_DOT":"0.00001749","NORAD_CAT_ID":"50158","PERIAPSIS":"538.544","INCLINATION":"53.2154","CENTER_NAME":"EARTH","OBJECT_ID":"2021-125C","EPHEMERIS_TYPE":"0","SEMIMAJOR_AXIS":"6917.888","PERIOD":"95.438"},{"SITE":"AFWTR","BSTAR":"0.00017541000000","ELEMENT_SET_NO":"999","MEAN_MOTION_DOT":"0.00002505","PERIAPSIS":"538.583","NORAD_CAT_ID":"50159","INCLINATION":"53.2146","CLASSIFICATION_TYPE":"U","DECAY_DATE":null,"EPOCH":"2022-10-07T19:17:56.177952","GP_ID":"214437594","APOAPSIS":"540.885","MEAN_MOTION_DDOT":"0.0000000000000","OBJECT_ID":"2021-125D","EPHEMERIS_TYPE":"0","SEMIMAJOR_AXIS":"6917.869","PERIOD":"95.437","CENTER_NAME":"EARTH","LAUNCH_DATE":"2021-12-18","RCS_SIZE":"LARGE","REF_FRAME":"TEME","MEAN_MOTION":"15.08843626","REV_AT_EPOCH":"4791","RA_OF_ASC_NODE":"105.5836","FILE":"3595773","ECCENTRICITY":"0.00016640","TIME_SYSTEM":"UTC","OBJECT_NAME":"STARLINK-3297","MEAN_ELEMENT_THEORY":"SGP4","ARG_OF_PERICENTER":"47.5231","COUNTRY_CODE":"US","OBJECT_TYPE":"PAYLOAD","TLE_LINE2":"2 50159  53.2146 105.5836 0001664  47.5231 312.5901 15.08843626 47915","MEAN_ANOMALY":"312.5901","TLE_LINE1":"1 50159U 21125D   22280.80412243  .00002505  00000-0  17541-3 0  9992"},{"INCLINATION":"53.2159","PERIAPSIS":"538.571","NORAD_CAT_ID":"50160","MEAN_MOTION_DOT":"0.00001574","ELEMENT_SET_NO":"999","BSTAR":"0.00011696000000","SITE":"AFWTR","MEAN_MOTION_DDOT":"0.0000000000000","APOAPSIS":"540.948","GP_ID":"214436342","EPOCH":"2022-10-07T19:28:32.137248","DECAY_DATE":null,"CLASSIFICATION_TYPE":"U","PERIOD":"95.438","SEMIMAJOR_AXIS":"6917.894","EPHEMERIS_TYPE":"0","OBJECT_ID":"2021-125E","CENTER_NAME":"EARTH","MEAN_MOTION":"15.08835476","REF_FRAME":"TEME","RCS_SIZE":"LARGE","LAUNCH_DATE":"2021-12-18","ARG_OF_PERICENTER":"44.7510","COUNTRY_CODE":"US","MEAN_ELEMENT_THEORY":"SGP4","OBJECT_NAME":"STARLINK-3288","TIME_SYSTEM":"UTC","ECCENTRICITY":"0.00017180","FILE":"3595773","REV_AT_EPOCH":"4792","RA_OF_ASC_NODE":"105.5609","TLE_LINE2":"2 50160  53.2159 105.5609 0001718  44.7510 315.3621 15.08835476 47923","OBJECT_TYPE":"PAYLOAD","TLE_LINE1":"1 50160U 21125E   22280.81148307  .00001574  00000-0  11696-3 0  9992","MEAN_ANOMALY":"315.3621"},{"RCS_SIZE":"LARGE","MEAN_MOTION":"15.08838819","REF_FRAME":"TEME","LAUNCH_DATE":"2021-12-18","MEAN_ELEMENT_THEORY":"SGP4","OBJECT_NAME":"STARLINK-3304","ARG_OF_PERICENTER":"39.6923","COUNTRY_CODE":"US","FILE":"3595773","REV_AT_EPOCH":"4791","RA_OF_ASC_NODE":"105.5316","TIME_SYSTEM":"UTC","ECCENTRICITY":"0.00020170","TLE_LINE2":"2 50161  53.2164 105.5316 0002017  39.6923 320.4217 15.08838819 47910","OBJECT_TYPE":"PAYLOAD","TLE_LINE1":"1 50161U 21125F   22280.81516204  .00000553  00000-0  52844-4 0  9995","MEAN_ANOMALY":"320.4217","MEAN_MOTION_DOT":"0.00000553","INCLINATION":"53.2164","NORAD_CAT_ID":"50161","PERIAPSIS":"538.354","BSTAR":"0.00005284400000","ELEMENT_SET_NO":"999","SITE":"AFWTR","APOAPSIS":"541.144","MEAN_MOTION_DDOT":"0.0000000000000","DECAY_DATE":null,"CLASSIFICATION_TYPE":"U","GP_ID":"214436592","EPOCH":"2022-10-07T19:33:50.000256","PERIOD":"95.438","EPHEMERIS_TYPE":"0","OBJECT_ID":"2021-125F","SEMIMAJOR_AXIS":"6917.884","CENTER_NAME":"EARTH"},{"CENTER_NAME":"EARTH","PERIOD":"91.075","SEMIMAJOR_AXIS":"6705.413","OBJECT_ID":"2021-125G","EPHEMERIS_TYPE":"0","APOAPSIS":"329.806","MEAN_MOTION_DDOT":"0.0000000000000","GP_ID":"214437344","EPOCH":"2022-10-07T16:12:02.554848","CLASSIFICATION_TYPE":"U","DECAY_DATE":null,"INCLINATION":"53.2003","NORAD_CAT_ID":"50162","PERIAPSIS":"324.750","MEAN_MOTION_DOT":"-0.00057088","ELEMENT_SET_NO":"999","BSTAR":"-0.00028417000000","SITE":"AFWTR","TLE_LINE1":"1 50162U 21125G   22280.67502957 -.00057088  00000-0 -28417-3 0  9995","MEAN_ANOMALY":"35.4469","TLE_LINE2":"2 50162  53.2003 342.1586 0003770 324.6304  35.4469 15.81118811 49679","OBJECT_TYPE":"PAYLOAD","ARG_OF_PERICENTER":"324.6304","COUNTRY_CODE":"US","MEAN_ELEMENT_THEORY":"SGP4","OBJECT_NAME":"STARLINK-3303","TIME_SYSTEM":"UTC","ECCENTRICITY":"0.00037700","FILE":"3595773","RA_OF_ASC_NODE":"342.1586","REV_AT_EPOCH":"4967","MEAN_MOTION":"15.81118811","REF_FRAME":"TEME","RCS_SIZE":"LARGE","LAUNCH_DATE":"2021-12-18"},{"REF_FRAME":"TEME","MEAN_MOTION":"15.08838833","RCS_SIZE":"LARGE","LAUNCH_DATE":"2021-12-18","COUNTRY_CODE":"US","ARG_OF_PERICENTER":"51.1190","OBJECT_NAME":"STARLINK-3306","MEAN_ELEMENT_THEORY":"SGP4","ECCENTRICITY":"0.00016750","TIME_SYSTEM":"UTC","REV_AT_EPOCH":"4818","RA_OF_ASC_NODE":"85.8985","FILE":"3595773","TLE_LINE2":"2 50163  53.2178  85.8985 0001675  51.1190 308.9951 15.08838833 48185","OBJECT_TYPE":"PAYLOAD","MEAN_ANOMALY":"308.9951","TLE_LINE1":"1 50163U 21125H   22280.73331770  .00000208  00000-0  31193-4 0  9992","PERIAPSIS":"538.590","NORAD_CAT_ID":"50163","INCLINATION":"53.2178","MEAN_MOTION_DOT":"0.00000208","SITE":"AFWTR","ELEMENT_SET_NO":"999","BSTAR":"0.00003119300000","MEAN_MOTION_DDOT":"0.0000000000000","APOAPSIS":"540.908","GP_ID":"214437094","EPOCH":"2022-10-07T17:35:58.649280","DECAY_DATE":null,"CLASSIFICATION_TYPE":"U","PERIOD":"95.438","SEMIMAJOR_AXIS":"6917.884","EPHEMERIS_TYPE":"0","OBJECT_ID":"2021-125H","CENTER_NAME":"EARTH"},{"ELEMENT_SET_NO":"999","BSTAR":"0.00086575000000","SITE":"AFWTR","INCLINATION":"53.2156","NORAD_CAT_ID":"50165","PERIAPSIS":"538.516","MEAN_MOTION_DOT":"0.00013529","EPOCH":"2022-10-07T19:12:38.706336","GP_ID":"214435842","CLASSIFICATION_TYPE":"U","DECAY_DATE":null,"APOAPSIS":"540.777","MEAN_MOTION_DDOT":"0.0000000000000","SEMIMAJOR_AXIS":"6917.782","EPHEMERIS_TYPE":"0","OBJECT_ID":"2021-125K","PERIOD":"95.436","CENTER_NAME":"EARTH","LAUNCH_DATE":"2021-12-18","MEAN_MOTION":"15.08872285","REF_FRAME":"TEME","RCS_SIZE":"LARGE","TIME_SYSTEM":"UTC","ECCENTRICITY":"0.00016340","FILE":"3595773","REV_AT_EPOCH":"4796","RA_OF_ASC_NODE":"105.6127","ARG_OF_PERICENTER":"59.0668","COUNTRY_CODE":"US","MEAN_ELEMENT_THEORY":"SGP4","OBJECT_NAME":"STARLINK-3298","OBJECT_TYPE":"PAYLOAD","TLE_LINE2":"2 50165  53.2156 105.6127 0001634  59.0668 301.0484 15.08872285 47963","TLE_LINE1":"1 50165U 21125K   22280.80044799  .00013529  00000-0  86575-3 0  9997","MEAN_ANOMALY":"301.0484"}];
